{
    "links": {
        "self": "http://www.neowsapp.com/rest/v1/neo/54016661?api_key=iIulBulltgU6a56xZRHN4H3l9WmuAYTsLGpBGhQ2"
    },
    "id": "54016661",
    "neo_reference_id": "54016661",
    "name": "(2020 HH3)",
    "designation": "2020 HH3",
    "nasa_jpl_url": "http://ssd.jpl.nasa.gov/sbdb.cgi?sstr=54016661",
    "absolute_magnitude_h": 23.881,
    "estimated_diameter": {
        "kilometers": {
            "estimated_diameter_min": 0.0444994842,
            "estimated_diameter_max": 0.0995038715
        },
        "meters": {
            "estimated_diameter_min": 44.4994841557,
            "estimated_diameter_max": 99.5038715357
        },
        "miles": {
            "estimated_diameter_min": 0.027650689,
            "estimated_diameter_max": 0.0618288202
        },
        "feet": {
            "estimated_diameter_min": 145.9956875972,
            "estimated_diameter_max": 326.4562818892
        }
    },
    "is_potentially_hazardous_asteroid": false,
    "close_approach_data": [
        {
            "close_approach_date": "1999-08-16",
            "close_approach_date_full": "1999-Aug-16 03:50",
            "epoch_date_close_approach": 934775400000,
            "relative_velocity": {
                "kilometers_per_second": "5.0763418071",
                "kilometers_per_hour": "18274.8305057367",
                "miles_per_hour": "11355.2689884118"
            },
            "miss_distance": {
                "astronomical": "1.9466793663",
                "lunar": "757.2582734907",
                "kilometers": "291219086.771429781",
                "miles": "180955149.5179857378"
            },
            "orbiting_body": "Juptr"
        },
        {
            "close_approach_date": "2005-05-12",
            "close_approach_date_full": "2005-May-12 06:17",
            "epoch_date_close_approach": 1115878620000,
            "relative_velocity": {
                "kilometers_per_second": "8.0511798111",
                "kilometers_per_hour": "28984.2473199347",
                "miles_per_hour": "18009.6841194338"
            },
            "miss_distance": {
                "astronomical": "0.1717319926",
                "lunar": "66.8037451214",
                "kilometers": "25690740.303815762",
                "miles": "15963485.7881190356"
            },
            "orbiting_body": "Earth"
        },
        {
            "close_approach_date": "2020-05-13",
            "close_approach_date_full": "2020-May-13 03:22",
            "epoch_date_close_approach": 1589340120000,
            "relative_velocity": {
                "kilometers_per_second": "8.1688508323",
                "kilometers_per_hour": "29407.8629964341",
                "miles_per_hour": "18272.9024268676"
            },
            "miss_distance": {
                "astronomical": "0.1573438709",
                "lunar": "61.2067657801",
                "kilometers": "23538307.944194983",
                "miles": "14626026.3386694454"
            },
            "orbiting_body": "Earth"
        },
        {
            "close_approach_date": "2035-05-07",
            "close_approach_date_full": "2035-May-07 11:16",
            "epoch_date_close_approach": 2062149360000,
            "relative_velocity": {
                "kilometers_per_second": "8.8418720129",
                "kilometers_per_hour": "31830.7392462865",
                "miles_per_hour": "19778.3835055607"
            },
            "miss_distance": {
                "astronomical": "0.2365131811",
                "lunar": "92.0036274479",
                "kilometers": "35381868.119484257",
                "miles": "21985273.3787744666"
            },
            "orbiting_body": "Earth"
        },
        {
            "close_approach_date": "2050-05-12",
            "close_approach_date_full": "2050-May-12 14:18",
            "epoch_date_close_approach": 2535977880000,
            "relative_velocity": {
                "kilometers_per_second": "7.8982973186",
                "kilometers_per_hour": "28433.8703467989",
                "miles_per_hour": "17667.7012718763"
            },
            "miss_distance": {
                "astronomical": "0.1889820683",
                "lunar": "73.5140245687",
                "kilometers": "28271314.885874521",
                "miles": "17566980.4783735498"
            },
            "orbiting_body": "Earth"
        }
    ],
    "orbital_data": {
        "orbit_id": "8",
        "orbit_determination_date": "2020-05-21 11:41:21",
        "first_observation_date": "2020-04-19",
        "last_observation_date": "2020-05-20",
        "data_arc_in_days": 31,
        "observations_used": 41,
        "orbit_uncertainty": "6",
        "minimum_orbit_intersection": ".154161",
        "jupiter_tisserand_invariant": "3.293",
        "epoch_osculation": "2459000.5",
        "eccentricity": ".5197020723027338",
        "semi_major_axis": "2.412508833534467",
        "inclination": "12.41664573304009",
        "ascending_node_longitude": "60.44568426351635",
        "orbital_period": "1368.679603117879",
        "perihelion_distance": "1.158722993297953",
        "perihelion_argument": "165.228116818682",
        "aphelion_distance": "3.666294673770981",
        "perihelion_time": "2458974.126741470999",
        "mean_anomaly": "6.9368850451281",
        "mean_motion": ".2630272265181075",
        "equinox": "J2000",
        "orbit_class": {
            "orbit_class_type": "AMO",
            "orbit_class_description": "Near-Earth asteroid orbits similar to that of 1221 Amor",
            "orbit_class_range": "1.017 AU < q (perihelion) < 1.3 AU"
        }
    },
    "is_sentry_object": false
}